STARLINK-35327          
1 66439U 25259T   25343.16668980  .00084759  00000+0  20188-2 0  9995
2 66439  43.0003  68.2737 0001054 261.7099 174.7275 15.40626064  5706
STARLINK-35405          
1 66440U 25259U   25343.16668980 -.02023411  00000+0 -45461-1 0  9999
2 66440  43.0000  68.1804 0001323 276.0212 198.8460 15.45997945  5701
STARLINK-35426          
1 66441U 25259V   25342.56460547  .00161833  00000+0  27132-2 0  9995
2 66441  43.0012  71.6764 0004241 306.6467  53.4003 15.50516656  5524
STARLINK-34724          
1 66442U 25259W   25343.00002315 -.02121366  00000+0 -42423-1 0  9991
2 66442  43.0009  69.1254 0001312 264.5323  10.4834 15.49472751  5672
STARLINK-35219          
1 66443U 25259X   25342.95039024  .00103295  00000+0  17406-2 0  9993
2 66443  43.0000  69.4110 0000960 286.7645  73.3110 15.50624735  5475
STARLINK-35360          
1 66444U 25259Y   25342.62728516  .00113963  00000+0  19177-2 0  9999
2 66444  43.0012  71.2839 0002256 271.2736  88.7866 15.50615761  5532
STARLINK-34698          
1 66445U 25259Z   25342.56356992  .00091866  00000+0  15532-2 0  9996
2 66445  43.0056  71.6672 0002429 260.1314  99.9272 15.50582419  5416
STARLINK-34986          
1 66446U 25259AA  25342.94969279  .00127053  00000+0  21306-2 0  9991
2 66446  42.9984  69.4048 0000981 344.9284  15.1546 15.50657569  5586
STARLINK-34851          
1 66447U 25259AB  25342.94901922  .00086281  00000+0  14590-2 0  9997
2 66447  42.9997  69.3985 0001046 277.5852  82.4889 15.50606148  5477
STARLINK-35355          
1 66448U 25259AC  25342.94867626  .00084482  00000+0  14292-2 0  9990
2 66448  43.0007  69.3957 0001124 293.8629  66.2114 15.50602449  5584
STARLINK-34720          
1 66449U 25259AD  25342.94833632  .00084172  00000+0  14242-2 0  9992
2 66449  42.9998  69.3926 0000625 331.1257  28.9568 15.50600010  5474
STARLINK-35334          
1 66450U 25259AE  25342.94799058  .00119681  00000+0  20122-2 0  9995
2 66450  42.9969  69.3883 0001305 271.9278  88.1433 15.50615981  5580
STARLINK-35643          
1 66456U 25262A   25343.16668980  .00101347  00000+0  24067-2 0  9991
2 66456  43.0003  92.1977 0001452 263.8048 205.8762 15.40632769  5061
STARLINK-35466          
1 66457U 25262B   25343.16668980  .00085428  00000+0  20333-2 0  9995
2 66457  43.0003  92.1368 0001183 280.4949 214.0585 15.40643020  5069
STARLINK-35684          
1 66458U 25262C   25343.16668980  .00077329  00000+0  18425-2 0  9996
2 66458  43.0003  92.1662 0001460 262.5110 219.5519 15.40655211  5068
STARLINK-35449          
1 66459U 25262D   25343.16668980  .00072045  00000+0  17195-2 0  9990
2 66459  43.0002  92.1050 0001552 277.9489 229.0701 15.40633107  5069
STARLINK-35424          
1 66460U 25262E   25343.16668980 -.01777245  00000+0 -45128-1 0  9995
2 66460  43.0002  92.0773 0001712 275.2060 243.4983 15.41992836  5066
